COSMOS 2433 (720)       
1 32275C 07052A   20202.99979167  .00000001  00000-0  00000-0 0  2024
2 32275  65.9916  27.8045 0001579 188.5134  15.6506  2.13104339    15
COSMOS 2432 (719)       
1 32276C 07052B   20202.99979167  .00000001  00000-0  00000-0 0  2025
2 32276  66.0041  27.8939 0008651 341.3288 172.9647  2.13103599    16
COSMOS 2434 (721)       
1 32393C 07065A   20202.99979167 -.00000001  00000-0  00000-0 0  2020
2 32393  64.5611 265.2710 0002252 143.3816 308.4474  2.13103116    14
COSMOS 2436 (723)       
1 32395C 07065C   19331.99979167 -.00000003  00000-0  00000-0 0  3318
2 32395  64.6628 273.4180 0015428 335.5981 236.1653  2.13280743    12
COSMOS 2456 (730)       
1 36111C 09070A   20202.99979167  .00000000  00000-0  00000-0 0  2028
2 36111  64.2325 144.9439 0005316 312.2490 313.0380  2.13102886    16
COSMOS 2457 (733)       
1 36112C 09070B   19331.99979167  .00000009  00000-0  00000-0 0  3312
2 36112  64.1929 152.9203 0006907 146.4578 270.9332  2.13101641    11
COSMOS 2459 (731)       
1 36400C 10007A   20175.99979167 -.00000001  00000-0  00000-0 0  1751
2 36400  65.8848  27.6736 0025225 354.9284 231.1448  2.13105240    18
COSMOS 2460 (732)       
1 36402C 10007C   20176.99979167 -.00000002  00000-0  00000-0 0  1766
2 36402  65.8683  27.5686 0002295  87.0908 133.2447  2.13101357    15
COSMOS 2464 (736)       
1 37139C 10041C   20202.99979167 -.00000001  00000-0  00000-0 0  2021
2 37139  64.1608 264.6933 0024867   7.4966 307.6860  2.13100823    13
COSMOS 2476 (744)       
1 37867C 11064A   20202.99979167  .00000000  00000-0  00000-0 0  2023
2 37867  64.5313 146.0261 0020569 241.2003 284.9367  2.13101652    10
COSMOS 2477 (745)       
1 37868C 11064B   20202.99979167  .00000000  00000-0  00000-0 0  2024
2 37868  64.5394 146.0830 0018099 242.6474 101.9790  2.13101665    16
COSMOS 2475 (743)       
1 37869C 11064C   20202.99979167  .00000000  00000-0  00000-0 0  2025
2 37869  64.5468 146.0847 0022389 262.7125  39.3233  2.13102055    10
COSMOS 2485 (747)       
1 39155C 13019A   20202.99979167  .00000000  00000-0  00000-0 0  2027
2 39155  64.6989 146.3026 0020976 236.7707 333.9301  2.13101810    15
COSMOS 2492 (754)       
1 39620C 14012A   20202.99979167  .00000001  00000-0  00000-0 0  2029
2 39620  65.7658  26.4778 0011596 333.0654 272.6887  2.13103357    15
COSMOS 2500 (755)       
1 40001C 14032A   20202.99979167  .00000001  00000-0  00000-0 0  2026
2 40001  65.7064  26.3907 0006301 182.7191 283.5139  2.13102439    18
COSMOS 2501 (702)       
1 40315C 14075A   20202.99979167 -.00000001  00000-0  00000-0 0  2022
2 40315  63.8770 265.6266 0017932 209.4580  51.5580  2.13098697    19
COSMOS 2514 (751)       
1 41330C 16008A   20202.99979167  .00000001  00000-0  00000-0 0  2027
2 41330  65.5089  26.2548 0009351 200.1318  88.5906  2.13103059    17
COSMOS 2516 (753)       
1 41554C 16032A   20202.99979167 -.00000001  00000-0  00000-0 0  2023
2 41554  64.1006 265.7060 0014824 219.3735 320.2055  2.13101687    10
COSMOS 2522 (752)       
1 42939C 17055A   20202.99979167 -.00000001  00000-0  00000-0 0  2027
2 42939  64.3338 265.8963 0009438 242.9821 163.1696  2.13102042    15
COSMOS 2527 (756)       
1 43508C 18053A   20202.99979167  .00000000  00000-0  00000-0 0  2027
2 43508  64.8634 146.1571 0008225 239.6125 198.3856  2.13102434    14
COSMOS 2529 (757)       
1 43687C 18086A   20202.99979167 -.00000001  00000-0  00000-0 0  2023
2 43687  64.5474 266.0248 0011476 264.3306  97.4433  2.13102225    10
COSMOS 2534 (758)       
1 44299C 19030A   20202.99979167 -.00000001  00000-0  00000-0 0  2023
2 44299  64.6174 265.8450 0014015 282.3492 214.4664  2.13101981    13
COSMOS 2544 (759)       
1 44850C 19088A   20202.99979167  .00000000  00000-0  00000-0 0  2027
2 44850  64.8477 146.0244 0012742 268.1603 213.8922  2.13102097    15
COSMOS 2545 (760)       
1 45358C 20018A   19320.99979167 -.00000007  00000-0  00000-0 0  3204
2 45358  65.8070  35.0079 0005134  75.6998 123.1059  2.13101688    16
